TIROS N [P]             
1 11060U 78096A   10089.07440916  .00000030  00000-0  37225-4 0  4426
2 11060  98.9690  66.5866 0009950 284.4650  75.5421 14.17500527839455
NOAA 1 [-]              
1 04793U 70106A   10088.07285684 -.00000031  00000-0  10000-3 0  4640
2 04793 102.0937  89.0555 0031882 255.3383 104.4153 12.53937077798624
NOAA 2 [-]              
1 06235U 72082A   10088.43363124 -.00000027  00000-0  10000-3 0  5639
2 06235 101.3931  99.8478 0003980  88.2320 271.9212 12.53007119713198
NOAA 3 [-]              
1 06920U 73086A   10088.14645837 -.00000030  00000-0  10000-3 0  4551
2 06920 101.7047 104.8453 0006412 356.7492   3.3532 12.40304354647608
NOAA 4 [-]              
1 07529U 74089A   10088.11630444 -.00000027  00000-0  10000-3 0  4664
2 07529 101.4201 107.1701 0009280 119.7776 240.4222 12.53056167617734
NOAA 5 [-]              
1 09057U 76077A   10088.10654492 -.00000031  00000-0  10000-3 0  3438
2 09057 101.8716 127.6948 0009606 177.6606 182.4493 12.37817999521733
NOAA 6 [P]              
1 11416U 79057A   10088.13992560  .00000099  00000-0  52655-4 0  2070
2 11416  98.4034  99.2346 0010848 134.0717 226.1364 14.31968222602493
NOAA 7 [-]              
1 12553U 81059A   10088.32338733  .00000017  00000-0  29849-4 0  3198
2 12553  98.6947  39.8920 0011002 216.0116 144.0330 14.16781110485904
NOAA 8 [-]              
1 13923U 83022A   10088.09512536  .00000015  00000-0  23553-4 0  2194
2 13923  98.5316 116.8304 0015863 357.1349   2.9742 14.27730632405503
NOAA 9 [P]              
1 15427U 84123A   10088.40065737 -.00000152  00000-0 -56897-4 0   749
2 15427  98.4651  76.3490 0014421 320.7837  39.2304 14.15345574305306
NOAA 10 [-]             
1 16969U 86073A   10089.15423318  .00000034  00000-0  31894-4 0    87
2 16969  98.6650 118.8380 0013267  83.2876 276.9819 14.27411032224307
NOAA 11 [-]             
1 19531U 88089A   10088.26193426 -.00000229  00000-0 -95949-4 0   235
2 19531  98.7673 178.6481 0012092  19.4701 340.6922 14.14918019109837
NOAA 12 [B]             
1 21263U 91032A   10088.27111566  .00000056  00000-0  42546-4 0  5087
2 21263  98.7692 101.4315 0013103  42.3182 317.9007 14.25624490981013
NOAA 13 [-]             
1 22739U 93050A   10088.29735639 -.00000039  00000-0  27852-5 0   545
2 22739  98.8406 170.0647 0010136 110.0937 250.1290 14.12234966857206
NOAA 14 [-]             
1 23455U 94089A   10088.31174050  .00000027  00000-0  37499-4 0    05
2 23455  98.8801 169.6019 0010273 100.7619 259.4710 14.13782203786217
NOAA 15 [+]             
1 25338U 98030A   10088.23903888 -.00000089  00000-0 -19620-4 0  3208
2 25338  98.6136  76.6189 0009893 311.7761  48.2574 14.24813978617368
NOAA 16 [+]             
1 26536U 00055A   10088.25624743 -.00000109  00000-0 -33546-4 0  7964
2 26536  99.1753 103.8266 0010215 197.4503 162.6357 14.12550238490545
NOAA 17 [+]             
1 27453U 02032A   10088.25434804  .00000191  00000-0  10101-3 0  8025
2 27453  98.4406 141.8837 0012019  16.0648 344.0924 14.24143694403320
NOAA 18 [+]             
1 28654U 05018A   10088.33256915  .00000356  00000-0  22153-3 0  2869
2 28654  98.9419  34.8545 0013531 279.5398  80.4240 14.11341999250177
NOAA 19 [S]             
1 33591U 09005A   10088.30326521  .00000006  00000-0  27251-4 0  4851
2 33591  98.7821  32.1483 0014424 152.0899 208.1052 14.11038210 58640
